NORAD_CAT_ID,OBJECT_NAME,OBJECT_TYPE,EPOCH,MEAN_MOTION,ECCENTRICITY,INCLINATION,RA_OF_ASC_NODE,ARG_OF_PERICENTER,MEAN_ANOMALY,BSTAR,MEAN_MOTION_DOT,MEAN_MOTION_DDOT,TLE_LINE0,TLE_LINE1,TLE_LINE2,SEMIMAJOR_AXIS,PERIOD,APOGEE,PERIGEE,DECAYED
49419.0,STARLINK-3120,PAYLOAD,2022-08-15 11:31:06,15.08839975,0.0001606,53.2177,314.9795,54.2085,305.9057,2.8605e-05,1.67e-06,0.0,0 STARLINK-3120,1 49419U 21104M   22227.47993971  .00000167  00000-0  28605-4 0  9998,2 49419  53.2177 314.9795 0001606  54.2085 305.9057 15.08839975 42032,6917.88,95.438,540.856,538.634,0.0
49419.0,STARLINK-3120,PAYLOAD,2022-08-15 17:52:39,15.08836148,0.0001598,53.2174,313.7902,48.9791,311.1339,-2.1391e-05,-6.28e-06,0.0,0 STARLINK-3120,1 49419U 21104M   22227.74490441 -.00000628  00000-0 -21391-4 0  9991,2 49419  53.2174 313.7902 0001598  48.9791 311.1339 15.08836148 42075,6917.892,95.438,540.863,538.6519999999998,0.0
49419.0,STARLINK-3120,PAYLOAD,2022-08-15 22:38:49,15.08831833,0.0001592,53.2174,312.8982,48.6379,311.475,6.9626e-05,8.2e-06,0.0,0 STARLINK-3120,1 49419U 21104M   22227.94362607  .00000820  00000-0  69626-4 0  9990,2 49419  53.2174 312.8982 0001592  48.6379 311.4750 15.08831833 43185,6917.905,95.438,540.872,538.669,0.0
49419.0,STARLINK-3120,PAYLOAD,2022-08-16 11:21:54,15.08838634,0.0001626999999999,53.2173,310.5191,50.1116,310.0019,0.00011717,1.577e-05,0.0,0 STARLINK-3120,1 49419U 21104M   22228.47354282  .00001577  00000-0  11717-3 0  9996,2 49419  53.2173 310.5191 0001627  50.1116 310.0019 15.08838634 43265,6917.885,95.438,540.875,538.624,0.0
49419.0,STARLINK-3120,PAYLOAD,2022-08-17 11:12:41,15.08813691,0.0001844,53.2173,306.0582,57.4495,302.6675,0.0004006,6.089e-05,0.0,0 STARLINK-3120,1 49419U 21104M   22229.46715263  .00006089  00000-0  40060-3 0  9992,2 49419  53.2173 306.0582 0001844  57.4495 302.6675 15.08813691 43418,6917.9609999999975,95.439,541.101,538.55,0.0
49419.0,STARLINK-3120,PAYLOAD,2022-08-17 12:48:05,15.08804252,0.0001836,53.2174,305.7609,56.3822,303.7345,0.00054552,8.396e-05,0.0,0 STARLINK-3120,1 49419U 21104M   22229.53339606  .00008396  00000-0  54552-3 0  9997,2 49419  53.2174 305.7609 0001836  56.3822 303.7345 15.08804252 42348,6917.99,95.44,541.125,538.585,0.0
49419.0,STARLINK-3120,PAYLOAD,2022-08-18 04:41:55,15.0884332,0.0001626999999999,53.2171,302.7872,53.629,306.4852,0.00012254,1.663e-05,0.0,0 STARLINK-3120,1 49419U 21104M   22230.19578219  .00001663  00000-0  12254-3 0  9999,2 49419  53.2171 302.7872 0001627  53.6290 306.4852 15.08843320 43524,6917.87,95.437,540.861,538.61,0.0
49419.0,STARLINK-3120,PAYLOAD,2022-08-18 11:03:28,15.08845351,0.0001641999999999,53.2171,301.5977,53.8244,306.29,6.506800000000001e-05,7.48e-06,0.0,0 STARLINK-3120,1 49419U 21104M   22230.46074191  .00000748  00000-0  65068-4 0  9994,2 49419  53.2171 301.5977 0001642  53.8244 306.2900 15.08845351 42487,6917.864000000001,95.437,540.865,538.5930000000002,0.0
49419.0,STARLINK-3120,PAYLOAD,2022-08-18 14:14:14,15.08845899,0.0001654,53.2171,301.0031,53.4953,306.6191,6.5539e-05,7.55e-06,0.0,0 STARLINK-3120,1 49419U 21104M   22230.59322099  .00000755  00000-0  65539-4 0  9992,2 49419  53.2171 301.0031 0001654  53.4953 306.6191 15.08845899 42505,6917.861999999999,95.437,540.872,538.5830000000002,0.0
49419.0,STARLINK-3120,PAYLOAD,2022-08-19 10:54:15,15.0883827,0.0001675,53.2169,297.1375,53.7218,306.3929,4.3675e-05,4.07e-06,0.0,0 STARLINK-3120,1 49419U 21104M   22231.45434576  .00000407  00000-0  43675-4 0  9993,2 49419  53.2169 297.1375 0001675  53.7218 306.3929 15.08838270 43713,6917.886,95.438,540.909,538.592,0.0
49419.0,STARLINK-3120,PAYLOAD,2022-08-20 10:45:02,15.08841405,0.0001498,53.2181,292.6788,55.2491,304.8642,5.8545e-05,6.44e-06,0.0,0 STARLINK-3120,1 49419U 21104M   22232.44794437  .00000644  00000-0  58545-4 0  9993,2 49419  53.2181 292.6788 0001498  55.2491 304.8642 15.08841405 42783,6917.876,95.437,540.7769999999998,538.705,0.0
49419.0,STARLINK-3120,PAYLOAD,2022-08-20 13:55:49,15.08835395,0.0001319,53.2171,292.0833,58.9647,301.1474,2.2907e-06,-2.51e-06,0.0,0 STARLINK-3120,1 49419U 21104M   22232.58042935 -.00000251  00000-0  22907-5 0  9996,2 49419  53.2171 292.0833 0001319  58.9647 301.1474 15.08835395 42809,6917.894,95.438,540.672,538.847,0.0
49419.0,STARLINK-3120,PAYLOAD,2022-08-21 10:35:50,15.0882457,0.0001744,53.2174,288.2167,49.5944,310.52,-2.7958e-05,-7.33e-06,0.0,0 STARLINK-3120,1 49419U 21104M   22233.44156120 -.00000733  00000-0 -27958-4 0  9990,2 49419  53.2174 288.2167 0001744  49.5944 310.5200 15.08824570 42935,6917.928000000001,95.439,540.999,538.586,0.0
49419.0,STARLINK-3120,PAYLOAD,2022-08-21 20:08:09,15.08827856,0.000177,53.2165,286.4317,49.2579,310.8567,-4.4427e-06,-3.59e-06,0.0,0 STARLINK-3120,1 49419U 21104M   22233.83900180 -.00000359  00000-0 -44427-5 0  9991,2 49419  53.2165 286.4317 0001770  49.2579 310.8567 15.08827856 42997,6917.918000000002,95.438,541.007,538.558,0.0
49419.0,STARLINK-3120,PAYLOAD,2022-08-22 10:26:38,15.08829539,0.0001801,53.2166,283.7567,46.7347,313.3795,2.2721e-05,7.3e-07,0.0,0 STARLINK-3120,1 49419U 21104M   22234.43516513  .00000073  00000-0  22721-4 0  9994,2 49419  53.2166 283.7567 0001801  46.7347 313.3795 15.08829539 43087,6917.9119999999975,95.438,541.023,538.531,0.0
49419.0,STARLINK-3120,PAYLOAD,2022-08-22 19:58:57,15.08833293,0.0001745,53.2166,281.9724,45.2919,314.8215,-8.3637e-06,-4.21e-06,0.0,0 STARLINK-3120,1 49419U 21104M   22234.83260530 -.00000421  00000-0 -83637-5 0  9996,2 49419  53.2166 281.9724 0001745  45.2919 314.8215 15.08833293 43140,6917.901,95.438,540.9730000000002,538.559,0.0
49419.0,STARLINK-3120,PAYLOAD,2022-08-23 11:52:48,15.08829768,0.0001881,53.2165,278.9986,49.0815,311.0339,9.4334e-05,1.213e-05,0.0,0 STARLINK-3120,1 49419U 21104M   22235.49500773  .00001213  00000-0  94334-4 0  9998,2 49419  53.2165 278.9986 0001881  49.0815 311.0339 15.08829768 44322,6917.9119999999975,95.438,541.078,538.475,0.0
49419.0,STARLINK-3120,PAYLOAD,2022-08-23 19:49:44,15.088315,0.000188,53.2164,277.5118,49.6554,310.4603,0.00010352,1.359e-05,0.0,0 STARLINK-3120,1 49419U 21104M   22235.82620861  .00001359  00000-0  10352-3 0  9994,2 49419  53.2164 277.5118 0001880  49.6554 310.4603 15.08831500 43297,6917.906,95.438,541.072,538.471,0.0
49419.0,STARLINK-3120,PAYLOAD,2022-08-24 11:43:35,15.08837905,0.0001911,53.2163,274.538,49.5751,310.5407,8.8153e-05,1.115e-05,0.0,0 STARLINK-3120,1 49419U 21104M   22236.48860711  .00001115  00000-0  88153-4 0  9992,2 49419  53.2163 274.5380 0001911  49.5751 310.5407 15.08837905 44476,6917.887,95.438,541.0740000000002,538.43,0.0
49419.0,STARLINK-3120,PAYLOAD,2022-08-25 11:34:22,15.08844456,0.0001956999999999,53.2162,270.0774,50.1637,309.9527,7.8875e-05,9.67e-06,0.0,0 STARLINK-3120,1 49419U 21104M   22237.48220231  .00000967  00000-0  78875-4 0  9994,2 49419  53.2162 270.0774 0001957  50.1637 309.9527 15.08844456 43545,6917.8669999999975,95.437,541.086,538.378,0.0
49419.0,STARLINK-3120,PAYLOAD,2022-08-25 14:45:08,15.08845289,0.0001962,53.2161,269.4826,50.0603,310.0562,7.1628e-05,8.52e-06,0.0,0 STARLINK-3120,1 49419U 21104M   22237.61468155  .00000852  00000-0  71628-4 0  9990,2 49419  53.2161 269.4826 0001962  50.0603 310.0562 15.08845289 44641,6917.864000000001,95.437,541.087,538.372,0.0
49419.0,STARLINK-3120,PAYLOAD,2022-08-26 08:14:22,15.08849169,0.0001986,53.2161,266.2114,51.2281,308.8888,7.5752e-05,9.18e-06,0.0,0 STARLINK-3120,1 49419U 21104M   22238.34331530  .00000918  00000-0  75752-4 0  9992,2 49419  53.2161 266.2114 0001986  51.2281 308.8888 15.08849169 43676,6917.852,95.437,541.091,538.3430000000002,0.0
49419.0,STARLINK-3120,PAYLOAD,2022-08-26 19:22:04,15.08841635,0.0002008999999999,53.2159,264.13,51.1196,308.9975,-8.797100000000001e-06,-4.28e-06,0.0,0 STARLINK-3120,1 49419U 21104M   22238.80700098 -.00000428  00000-0 -87971-5 0  9997,2 49419  53.2159 264.1300 0002009  51.1196 308.9975 15.08841635 44824,6917.875,95.437,541.13,538.351,0.0
49419.0,STARLINK-3120,PAYLOAD,2022-08-27 08:05:10,15.08837863,0.0002020999999999,53.2159,261.751,51.7791,308.3383,-5.109899999999999e-05,-1.101e-05,0.0,0 STARLINK-3120,1 49419U 21104M   22239.33692402 -.00001101  00000-0 -51099-4 0  9995,2 49419  53.2159 261.7510 0002021  51.7791 308.3383 15.08837863 43825,6917.887,95.438,541.15,538.354,0.0
49419.0,STARLINK-3120,PAYLOAD,2022-08-28 04:45:10,15.08841814,0.0002041999999999,53.2156,257.8853,51.9313,308.1863,-1.8746e-05,-5.87e-06,0.0,0 STARLINK-3120,1 49419U 21104M   22240.19803974 -.00000587  00000-0 -18746-4 0  9998,2 49419  53.2156 257.8853 0002042  51.9313 308.1863 15.08841814 45030,6917.875,95.437,541.1519999999998,538.327,0.0
49419.0,STARLINK-3120,PAYLOAD,2022-08-28 07:55:56,15.08842165,0.0002016,53.2163,257.291,51.8131,308.3043,-1.2618e-05,-4.89e-06,0.0,0 STARLINK-3120,1 49419U 21104M   22240.33051917 -.00000489  00000-0 -12618-4 0  9999,2 49419  53.2163 257.2910 0002016  51.8131 308.3043 15.08842165 43977,6917.874,95.437,541.133,538.344,0.0
49419.0,STARLINK-3120,PAYLOAD,2022-08-29 07:46:43,15.08837449,0.0002048,53.2167,252.8309,50.8441,309.2733,5.6514e-05,6.11e-06,0.0,0 STARLINK-3120,1 49419U 21104M   22241.32411953  .00000611  00000-0  56514-4 0  9997,2 49419  53.2167 252.8309 0002048  50.8441 309.2733 15.08837449 44125,6917.888000000001,95.438,541.17,538.336,0.0
49419.0,STARLINK-3120,PAYLOAD,2022-08-29 17:19:02,15.08839185,0.0002124,53.217,251.0478,50.9798,309.1383,4.3751e-05,4.08e-06,0.0,0 STARLINK-3120,1 49419U 21104M   22241.72155969  .00000408  00000-0  43751-4 0  9996,2 49419  53.2170 251.0478 0002124  50.9798 309.1383 15.08839185 44183,6917.8830000000025,95.438,541.217,538.279,0.0
49419.0,STARLINK-3120,PAYLOAD,2022-08-30 04:26:45,15.088294199999998,0.0002106,53.2176,248.9665,55.5806,304.5385,-4.3343e-05,-9.78e-06,0.0,0 STARLINK-3120,1 49419U 21104M   22242.18525225 -.00000978  00000-0 -43343-4 0  9994,2 49419  53.2176 248.9665 0002106  55.5806 304.5385 15.08829420 45333,6917.913000000001,95.438,541.235,538.321,0.0
